#aV2009  7 26  0  0   .00000000      96 DD+AD WGS84 FIT  NGA
## 1542       .00000000   900.00000000 55038  .0000000000000
+   31     1  2  3  4  6  7  8  9 10 11 12 13 14 15 16 17 18
+         19 20 21 22 23 24 25 26 27 28 29 30 31 32  0  0  0
+          0  0  0  0  0  0  0  0  0  0  0  0  0  0  0  0  0
+          0  0  0  0  0  0  0  0  0  0  0  0  0  0  0  0  0
+          0  0  0  0  0  0  0  0  0  0  0  0  0  0  0  0  0
++         0  0  0  0  0  0  0  0  0  0  0  0  0  0  0  0  0
++         0  0  0  0  0  0  0  0  0  0  0  0  0  0  0  0  0
++         0  0  0  0  0  0  0  0  0  0  0  0  0  0  0  0  0
++         0  0  0  0  0  0  0  0  0  0  0  0  0  0  0  0  0
++         0  0  0  0  0  0  0  0  0  0  0  0  0  0  0  0  0
%c cc cc ccc ccc cccc cccc cccc cccc ccccc ccccc ccccc ccccc
%c cc cc ccc ccc cccc cccc cccc cccc ccccc ccccc ccccc ccccc
%f  0.0000000  0.000000000  0.00000000000  0.000000000000000
%f  0.0000000  0.000000000  0.00000000000  0.000000000000000
%i    0    0    0    0      0      0      0      0         0
%i    0    0    0    0      0      0      0      0         0
/*      NGA, ST. LOUIS,MO.                                  
/*   EPHEMERIS COMPUTED FROM  3 DAYS OF DATA                
/* CCCCCCCCCCCCCCCCCCCCCCCCCCCCCCCCCCCCCCCCCCCCCCCCCCCCCCCCC
/* CCCCCCCCCCCCCCCCCCCCCCCCCCCCCCCCCCCCCCCCCCCCCCCCCCCCCCCCC
*  2009  7 26 12 15   .00000000                                                 
P  1  18447.623503 -17563.630582  -7431.835674    -62.832248                    
V  1   9351.092992  -2638.565948  29931.980550       .026843                    
P  2  13143.590893  15770.912341 -17151.740687    161.843477                    
V  2   -968.326849  21582.067433  18773.094701       .019173                    
P  3 -24873.047604  -9845.121787    207.618751    425.174471                    
V  3    748.748765  -3561.465273 -30751.838098       .050720                    
P  4   7235.634603  23686.649209  -9213.115469   -191.633051                    
V  4  -3156.858320  11730.527984  28453.730181      -.166205                    
P  6 -22902.241964 -13238.836895  -2621.773318    202.965546                    
V  6   4765.795936  -1672.933499 -30867.210366       .101061                    
P  7  -7510.294459  22550.438270 -11735.752095     14.541686                    
V  7  -2660.148547 -14841.286926 -26999.006376      -.007263                    
P  8   -378.615788  26258.263212    873.991488   -213.699108                    
V  8  -2390.902388   1095.680553 -32691.816603      -.017229                    
P  9  13822.775440  -6649.628858  21011.641335     68.591240                    
V  9   2300.540044  28130.813880   7237.316549       .020957                    
P 10  19646.859717   3178.825093 -17910.320854    -19.947870                    
V 10 -18573.617029  12431.853350 -18004.977325      -.007534                    
P 11 -14416.831016   9322.399634  19999.362811    -12.257470                    
V 11  -7553.630941 -25185.269161   6589.562467      -.016753                    
P 12  23676.154754 -11307.093899   3722.970834   -244.509322                    
V 12  -2617.243687   4691.690536  31524.749010       .060640                    
P 13  -7831.237083  12234.138195 -22366.669418    302.093856                    
V 13 -23754.190517 -14797.701702    212.485859       .006189                    
P 14  -9183.060438 -18456.080153  16941.998648    -74.394413                    
V 14  18773.868224   9844.148699  20929.783756       .055520                    
P 15  24418.981624   5752.546481   8842.289403   -310.766631                    
V 15   8674.946706   7541.887449 -28873.561506      -.022821                    
P 16 -15300.879463  -7338.183914 -20441.635024     29.136937                    
V 16  22062.957969 -13749.721349 -11309.944350      -.036606                    
P 17   8515.289808  18601.368541  17115.581954     72.948180                    
V 17 -19525.426026  -9194.156610  19600.583068       .025487                    
P 18  12514.451763 -18822.339857  13872.849320       .080882                    
V 18  16514.290636  -6225.711503 -24131.953597       .030681                    
P 19 -23579.342455  -5903.569707  11071.513925     17.628649                    
V 19 -10432.557716  -9448.935004 -27139.422518      -.014292                    
P 20 -23042.751873  12943.710388   2282.141896     76.349921                    
V 20    682.900000  -4568.632033  31161.748083      -.009792                    
P 21   6153.270124 -23928.497808  -8582.903672       .530946                    
V 21   4033.749820  11474.920651 -28827.807783      -.022032                    
P 22    963.128183 -17466.059825  20127.675495    194.685425                    
V 22  22630.965719 -11380.188419 -11127.395436      -.009615                    
P 23 -19382.254017   3412.945348 -18019.728219    389.893247                    
V 23 -19236.611047 -12035.137452  18164.496193      -.001981                    
P 24  13127.162785 -14633.632384 -17845.786644    207.369484                    
V 24   1102.267667  22894.329002 -17580.833356       .029797                    
P 25  -9772.557126  17475.270850 -17208.348595    525.562652                    
V 25  -4200.244754 -22078.373759 -19463.024471       .168209                    
P 26   7784.508294 -11961.995237  21867.225659     64.774590                    
V 26  24759.992856  15101.089674    -58.620541      -.000277                    
P 27  15261.505057     -6.462433  22426.116120     68.869504                    
V 27   2134.998275  26703.115282  -1488.457202       .032725                    
P 28  -3592.295271  17732.109126  19771.345498    -26.049574                    
V 28 -21677.006147  10949.952800 -14378.706795      -.000394                    
P 29  10208.339626 -11512.030978 -21542.727622     42.928214                    
V 29  23724.329516  14120.219388   3721.578969       .035017                    
P 30  18626.465142 -17921.650603  -6295.825789    163.882336                    
V 30   7900.043178  -1758.699847  30271.087976       .029014                    
P 31  -7925.792891 -22792.099526 -10733.030412    -64.245494                    
V 31   1891.715596 -14020.521138  27985.128029      -.004168                    
P 32 -24394.980545   5052.306300   9203.953145    225.752669                    
V 32   8866.079311  -7357.175260  29015.093999      -.063000                    
EOF
